HST                     
1 20580U 90037B   26176.94440779  .00007282  00000+0  22970-3 0  9991
2 20580  28.4731  20.7214 0001418 247.5756 112.4690 15.30843041789914
POLAR                   
1 23802U 96013A   26175.73936435  .00000126  00000+0  00000+0 0  9992
2 23802  79.8637 226.9636 6477909 208.8193  90.3423  1.29846085144951
SWAS                    
1 25560U 98071A   26177.15951461  .00002660  00000+0  17126-3 0  9991
2 25560  69.8944 204.3800 0008767 250.7898 109.2318 15.09665937498628
CXO                     
1 25867U 99040B   26179.95532601  .00000592  00000+0  00000+0 0  9990
2 25867  56.3077 116.3625 7815439 310.1470   0.3486  0.37796038 17366
XMM-NEWTON              
1 25989U 99066A   26179.31942051  .00000041  00000+0  00000+0 0  9996
2 25989  64.4273 282.8431 4670867  64.6865   0.1170  0.50127671 23061
TERRA                   
1 25994U 99068A   26177.18943382  .00000370  00000+0  84279-4 0  9995
2 25994  97.9451 226.3786 0002293 163.3171 233.0500 14.61109674410926
CLUSTER II-FM7 (SAMBA)  
1 26410U 00041A   26177.06472445  .00005882  00000+0  00000+0 0  9994
2 26410 149.9012  52.3742 9061812 269.6784 359.6419  0.44870397 20352
CLUSTER II-FM8 (TANGO)  
1 26464U 00045B   26172.94229412  .00004849  00000+0  00000+0 0  9995
2 26464 150.1352  52.7746 9062813 269.8657   2.6673  0.44420336 20332
ODIN                    
1 26702U 01007A   26177.10333021  .00238419  00000+0  13083-2 0  9994
2 26702  97.3805 218.6358 0006231 132.7995 227.3797 15.79099744390804
TIMED                   
1 26998U 01055B   26177.17410345  .00000920  00000+0  87105-4 0  9998
2 26998  74.0663 216.9233 0001573 323.6067  36.5010 14.95309774332160
CORIOLIS                
1 27640U 03001A   26177.00530882  .00000098  00000+0  66448-4 0  9990
2 27640  98.7126 183.7554 0013892 182.6895 177.4209 14.19947094215476
SORCE                   
1 27651U 03004A   26176.37477417  .00002184  00000+0  16687-3 0  9995
2 27651  39.9896 214.9630 0016291 112.2052 248.0472 15.03747558273132
MOST                    
1 27843U 03031D   26177.01087683  .00000070  00000+0  52350-4 0  9992
2 27843  98.7043 184.6136 0009029 221.9737 138.0749 14.21324205191969
SCISAT 1                
1 27858U 03036A   26177.20705597  .00000597  00000+0  80841-4 0  9995
2 27858  73.9289 153.4215 0008257 223.6062 136.4463 14.81456919232781
SWIFT                   
1 28485U 04047A   26176.96242316  .00058534  00000+0  47118-3 0  9995
2 28485  20.5514 117.1679 0001440  63.2059 296.8534 15.69134889188246
HINODE (SOLAR-B)        
1 29479U 06041A   26176.97435431  .00000666  00000+0  12278-3 0  9990
2 29479  98.0544 192.9974 0015969 259.3200 100.6207 14.68633887 56163
SHIJIAN-6 02A (SJ-6 02A)
1 29505U 06046A   26177.19434381  .00007340  00000+0  37434-3 0  9990
2 29505  97.6359 218.3284 0004650 105.7160 254.4586 15.17039714 73636
SHIJIAN-6 02B (SJ-6 02B)
1 29506U 06046B   26177.21033079  .00001306  00000+0  10574-3 0  9995
2 29506  97.7163 206.2137 0015334  35.1005 325.1226 15.01396984 72093
FGRST (GLAST)           
1 33053U 08029A   26177.19903627  .00002661  00000+0  93285-4 0  9998
2 33053  25.5805 141.9033 0008403  73.9420 286.2043 15.23981164997215
SDO                     
1 36395U 10005A   26177.18812867 -.00000095  00000+0  00000+0 0  9999
2 36395  34.6700  86.2051 0001587  47.2578 106.3940  1.00270711 60158
CRYOSAT 2               
1 36508U 10013A   26177.17896319  .00000120  00000+0  29041-4 0  9996
2 36508  92.0359 279.4872 0002129  94.2216 265.9234 14.51902013859389
X-SAT                   
1 37389U 11015C   26177.21180196  .00000038  00000+0  33792-4 0  9997
2 37389  98.3509 153.8052 0013325 321.3525  38.6701 14.25208369788968
GCOM-W1 (SHIZUKU)       
1 38337U 12025A   26176.82107425  .00000419  00000+0  10290-3 0  9993
2 38337  98.2022 117.2460 0001638  69.9682 344.3022 14.57131867750292
NUSTAR                  
1 38358U 12031A   26177.16668980  .00006603  00000+0  35323-3 0  9994
2 38358   6.0288 326.7955 0009119 246.9250 149.9786 15.08887645  1308
NEOSSAT                 
1 39089U 13009D   26176.99001090  .00000146  00000+0  65205-4 0  9994
2 39089  98.4180 356.8134 0010266 215.0980 144.9530 14.35829358698008
BRITE-AUSTRIA           
1 39091U 13009F   26176.98425794  .00000156  00000+0  67554-4 0  9997
2 39091  98.3998 356.2023 0009570 207.8221 152.2455 14.36545238698316
IRIS                    
1 39197U 13033A   26177.12119358  .00000977  00000+0  11801-3 0  9998
2 39197  97.9327  16.3702 0023048 291.1305  68.7446 14.85901253701703
HISAKI (SPRINT-A)       
1 39253U 13049A   26176.67229470  .00000111  00000+0  64831-4 0  9996
2 39253  29.7171 176.8707 0136853  85.6438 275.9757 13.55545428632574
CASSIOPE                
1 39265U 13055A   26177.14751156  .00050256 -31733-6  54488-3 0  9996
2 39265  80.9146  55.8348 0289325  32.3461 329.5144 15.26017461669031
STSAT-3                 
1 39422U 13066G   26177.16834399  .00003111  00000+0  23667-3 0  9994
2 39422  97.6215 146.9118 0010360  20.0719 340.0912 15.02803921685550
SWARM B                 
1 39451U 13067A   26177.16815458  .00003665  00000+0  13056-3 0  9997
2 39451  87.7439 339.5877 0003059  81.6828 278.4768 15.28603259684612
SWARM A                 
1 39452U 13067B   26177.12328855  .00011382  00000+0  19463-3 0  9997
2 39452  87.3323  52.9212 0003133  97.0929 263.0689 15.51115492707639
SWARM C                 
1 39453U 13067C   26177.12318399  .00011427  00000+0  19540-3 0  9996
2 39453  87.3323  51.5023 0003126  97.3229 262.8387 15.51114476707591
BRITE-CA1 (TORONTO)     
1 40020U 14033L   26176.93850303  .00000793  00000+0  12688-3 0  9996
2 40020  97.9748 305.7055 0077307 248.4979 110.7974 14.72689124643505
OCO 2                   
1 40059U 14035A   26177.15117588  .00000387  00000+0  96017-4 0  9994
2 40059  98.2019 118.3077 0001510  83.8377 276.2993 14.57118046637358
BRITE-PL2 (HEWELIUSZ)   
1 40119U 14049B   26176.87565770  .00001824  00000+0  17359-3 0  9992
2 40119  97.9105 288.9428 0015409  81.9829 278.3139 14.94625228642744
MMS 1                   
1 40482U 15011A   26177.16668980 -.00000775  00000+0  00000+0 0  9991
2 40482  72.2771 348.7041 8319649 167.5857 134.6634  0.28359462  1379
MMS 2                   
1 40483U 15011B   26177.16668980 -.00000776  00000+0  00000+0 0  9993
2 40483  72.2807 348.7032 8322430 167.5890 134.6544  0.28359360  1376
MMS 3                   
1 40484U 15011C   26177.16668980 -.00000775  00000+0  00000+0 0  9993
2 40484  72.2807 348.7150 8320825 167.5964 134.6281  0.28359416  1376
MMS 4                   
1 40485U 15011D   26177.16668980 -.00000775  00000+0  00000+0 0  9994
2 40485  72.2769 348.6983 8320700 167.6062 134.6212  0.28359378  1370
ASTROSAT                
1 40930U 15052A   26176.23154250  .00001534  00000+0  10501-3 0  9995
2 40930   5.9976  97.4359 0007747 153.3235 206.7292 14.82519717581027
DAMPE                   
1 41173U 15078A   26177.18913169  .00001684  00000+0  59060-4 0  9990
2 41173  97.4561 182.7005 0013443  49.5823 310.6588 15.30807906585928
PISAT                   
1 41784U 16059B   26176.99901235  .00000862  00000+0  15416-3 0  9990
2 41784  97.8179 177.0732 0029119 174.3760 185.7778 14.68997282521034
HXMT (HUIYAN)           
1 42758U 17034A   26177.21163598  .00004645  00000+0  22944-3 0  9991
2 42758  43.0130 132.7866 0031981 204.5587 155.3740 15.18532142499037
FLYING LAPTOP           
1 42831U 17042G   26177.18415558  .00003622  00000+0  28561-3 0  9999
2 42831  97.4724 332.3729 0019970  92.9950 267.3560 15.01200003487800
ZHANGHENG 1-01 (CSES-1) 
1 43194U 18015C   26177.21857323  .00008154  00000+0  37031-3 0  9994
2 43194  97.6871 343.0564 0017361 232.7628 127.2023 15.20920335466018
SALSAT                  
1 46495U 20068K   26176.97551410  .00008659  00000+0  30155-3 0  9992
2 46495  97.8851 180.5757 0007809 270.5499  89.4845 15.29916367316705
IXPE                    
1 49954U 21121A   26177.16668980  .00011027  00000+0  59740-3 0  9993
2 49954   0.2292 250.1696 0006843 215.5306  95.8705 15.10325895  5862
SMILE                   
1 69123U 26109A   26158.38327019 -.00000041  00000+0 -36778-3 0  9994
2 69123  69.9787 209.3069 3310191 288.5544  45.7342  7.54049028  2480
